{
"type": "FeatureCollection",
"name": "Messungen_UTM32",
"crs": { "type": "name", "properties": { "name": "urn:ogc:def:crs:EPSG::32632" } },
"features": [
{ "type": "Feature", "properties": { "Location #": 11, "dip": 26, "azimuth": 238, "type": "F", "x": 10.11062099, "y": 47.49051864 }, "geometry": { "type": "Point", "coordinates": [ 583659.286213030805811, 5260273.761031125672162 ] } },
{ "type": "Feature", "properties": { "Location #": 11, "dip": 20, "azimuth": 229, "type": "F", "x": 10.11062099, "y": 47.49051864 }, "geometry": { "type": "Point", "coordinates": [ 583659.286213030805811, 5260273.761031125672162 ] } },
{ "type": "Feature", "properties": { "Location #": 11, "dip": 23, "azimuth": 245, "type": "F", "x": 10.11062099, "y": 47.49051864 }, "geometry": { "type": "Point", "coordinates": [ 583659.286213030805811, 5260273.761031125672162 ] } },
{ "type": "Feature", "properties": { "Location #": 11, "dip": 46, "azimuth": 57, "type": "B/Stˆrung", "x": 10.11062099, "y": 47.49051864 }, "geometry": { "type": "Point", "coordinates": [ 583659.286213030805811, 5260273.761031125672162 ] } },
{ "type": "Feature", "properties": { "Location #": 11, "dip": 65, "azimuth": 191, "type": "B", "x": 10.11062099, "y": 47.49051864 }, "geometry": { "type": "Point", "coordinates": [ 583659.286213030805811, 5260273.761031125672162 ] } },
{ "type": "Feature", "properties": { "Location #": 11, "dip": 68, "azimuth": 180, "type": "B", "x": 10.11062099, "y": 47.49051864 }, "geometry": { "type": "Point", "coordinates": [ 583659.286213030805811, 5260273.761031125672162 ] } },
{ "type": "Feature", "properties": { "Location #": 11, "dip": 64, "azimuth": 187, "type": "B", "x": 10.11062099, "y": 47.49051864 }, "geometry": { "type": "Point", "coordinates": [ 583659.286213030805811, 5260273.761031125672162 ] } },
{ "type": "Feature", "properties": { "Location #": 12, "dip": 26, "azimuth": 310, "type": "F", "x": 10.10251827, "y": 47.49080495 }, "geometry": { "type": "Point", "coordinates": [ 583048.491049416712485, 5260296.889254555106163 ] } },
{ "type": "Feature", "properties": { "Location #": 12, "dip": 17, "azimuth": 293, "type": "F", "x": 10.10251827, "y": 47.49080495 }, "geometry": { "type": "Point", "coordinates": [ 583048.491049416712485, 5260296.889254555106163 ] } },
{ "type": "Feature", "properties": { "Location #": 12, "dip": 14, "azimuth": 296, "type": "F", "x": 10.10251827, "y": 47.49080495 }, "geometry": { "type": "Point", "coordinates": [ 583048.491049416712485, 5260296.889254555106163 ] } },
{ "type": "Feature", "properties": { "Location #": 12, "dip": 48, "azimuth": 271, "type": "F", "x": 10.10251827, "y": 47.49080495 }, "geometry": { "type": "Point", "coordinates": [ 583048.491049416712485, 5260296.889254555106163 ] } },
{ "type": "Feature", "properties": { "Location #": 12, "dip": 60, "azimuth": 272, "type": "F", "x": 10.10251827, "y": 47.49080495 }, "geometry": { "type": "Point", "coordinates": [ 583048.491049416712485, 5260296.889254555106163 ] } },
{ "type": "Feature", "properties": { "Location #": 13, "dip": 49, "azimuth": 116, "type": "B", "x": 10.10261176, "y": 47.49139034 }, "geometry": { "type": "Point", "coordinates": [ 583054.610189700732008, 5260362.046003860421479 ] } },
{ "type": "Feature", "properties": { "Location #": 13, "dip": 47, "azimuth": 122, "type": "B", "x": 10.10261176, "y": 47.49139034 }, "geometry": { "type": "Point", "coordinates": [ 583054.610189700732008, 5260362.046003860421479 ] } },
{ "type": "Feature", "properties": { "Location #": 13, "dip": 47, "azimuth": 139, "type": "B", "x": 10.10261176, "y": 47.49139034 }, "geometry": { "type": "Point", "coordinates": [ 583054.610189700732008, 5260362.046003860421479 ] } },
{ "type": "Feature", "properties": { "Location #": 13, "dip": 42, "azimuth": 113, "type": "B", "x": 10.10261176, "y": 47.49139034 }, "geometry": { "type": "Point", "coordinates": [ 583054.610189700732008, 5260362.046003860421479 ] } },
{ "type": "Feature", "properties": { "Location #": 13, "dip": 36, "azimuth": 114, "type": "B", "x": 10.10261176, "y": 47.49139034 }, "geometry": { "type": "Point", "coordinates": [ 583054.610189700732008, 5260362.046003860421479 ] } },
{ "type": "Feature", "properties": { "Location #": 13, "dip": 38, "azimuth": 153, "type": "B", "x": 10.10261176, "y": 47.49139034 }, "geometry": { "type": "Point", "coordinates": [ 583054.610189700732008, 5260362.046003860421479 ] } },
{ "type": "Feature", "properties": { "Location #": 13, "dip": 57, "azimuth": 150, "type": "B", "x": 10.10261176, "y": 47.49139034 }, "geometry": { "type": "Point", "coordinates": [ 583054.610189700732008, 5260362.046003860421479 ] } },
{ "type": "Feature", "properties": { "Location #": 13, "dip": 58, "azimuth": 150, "type": "B", "x": 10.10261176, "y": 47.49139034 }, "geometry": { "type": "Point", "coordinates": [ 583054.610189700732008, 5260362.046003860421479 ] } },
{ "type": "Feature", "properties": { "Location #": 13, "dip": 75, "azimuth": 158, "type": "B", "x": 10.10261176, "y": 47.49139034 }, "geometry": { "type": "Point", "coordinates": [ 583054.610189700732008, 5260362.046003860421479 ] } },
{ "type": "Feature", "properties": { "Location #": 15, "dip": 60, "azimuth": 303, "type": "B", "x": 10.10145809, "y": 47.49244119 }, "geometry": { "type": "Point", "coordinates": [ 582966.05527159885969, 5260477.599081960506737 ] } },
{ "type": "Feature", "properties": { "Location #": 15, "dip": 59, "azimuth": 303, "type": "B", "x": 10.10145809, "y": 47.49244119 }, "geometry": { "type": "Point", "coordinates": [ 582966.05527159885969, 5260477.599081960506737 ] } },
{ "type": "Feature", "properties": { "Location #": 15, "dip": 31, "azimuth": 75, "type": "F", "x": 10.10145809, "y": 47.49244119 }, "geometry": { "type": "Point", "coordinates": [ 582966.05527159885969, 5260477.599081960506737 ] } },
{ "type": "Feature", "properties": { "Location #": 15, "dip": 33, "azimuth": 81, "type": "F", "x": 10.10145809, "y": 47.49244119 }, "geometry": { "type": "Point", "coordinates": [ 582966.05527159885969, 5260477.599081960506737 ] } },
{ "type": "Feature", "properties": { "Location #": 15, "dip": 57, "azimuth": 57, "type": "F", "x": 10.10145809, "y": 47.49244119 }, "geometry": { "type": "Point", "coordinates": [ 582966.05527159885969, 5260477.599081960506737 ] } },
{ "type": "Feature", "properties": { "Location #": 15, "dip": 47, "azimuth": 75, "type": "F", "x": 10.10145809, "y": 47.49244119 }, "geometry": { "type": "Point", "coordinates": [ 582966.05527159885969, 5260477.599081960506737 ] } },
{ "type": "Feature", "properties": { "Location #": 16, "dip": 28, "azimuth": 350, "type": "B", "x": 10.09950433, "y": 47.49368677 }, "geometry": { "type": "Point", "coordinates": [ 582816.933580548269674, 5260613.941687393933535 ] } },
{ "type": "Feature", "properties": { "Location #": 16, "dip": 35, "azimuth": 349, "type": "B", "x": 10.09950433, "y": 47.49368677 }, "geometry": { "type": "Point", "coordinates": [ 582816.933580548269674, 5260613.941687393933535 ] } },
{ "type": "Feature", "properties": { "Location #": 16, "dip": 46, "azimuth": 333, "type": "B", "x": 10.09950433, "y": 47.49368677 }, "geometry": { "type": "Point", "coordinates": [ 582816.933580548269674, 5260613.941687393933535 ] } },
{ "type": "Feature", "properties": { "Location #": 19, "dip": 36, "azimuth": 151, "type": "B", "x": 10.0934547, "y": 47.49516904 }, "geometry": { "type": "Point", "coordinates": [ 582358.949803322902881, 5260772.243374236859381 ] } },
{ "type": "Feature", "properties": { "Location #": 19, "dip": 40, "azimuth": 155, "type": "B", "x": 10.0934547, "y": 47.49516904 }, "geometry": { "type": "Point", "coordinates": [ 582358.949803322902881, 5260772.243374236859381 ] } },
{ "type": "Feature", "properties": { "Location #": 19, "dip": 38, "azimuth": 155, "type": "B", "x": 10.0934547, "y": 47.49516904 }, "geometry": { "type": "Point", "coordinates": [ 582358.949803322902881, 5260772.243374236859381 ] } },
{ "type": "Feature", "properties": { "Location #": 19, "dip": 39, "azimuth": 157, "type": "B", "x": 10.0934547, "y": 47.49516904 }, "geometry": { "type": "Point", "coordinates": [ 582358.949803322902881, 5260772.243374236859381 ] } },
{ "type": "Feature", "properties": { "Location #": 19, "dip": 29, "azimuth": 134, "type": "B", "x": 10.0934547, "y": 47.49516904 }, "geometry": { "type": "Point", "coordinates": [ 582358.949803322902881, 5260772.243374236859381 ] } },
{ "type": "Feature", "properties": { "Location #": 19, "dip": 38, "azimuth": 186, "type": "B", "x": 10.0934547, "y": 47.49516904 }, "geometry": { "type": "Point", "coordinates": [ 582358.949803322902881, 5260772.243374236859381 ] } },
{ "type": "Feature", "properties": { "Location #": 19, "dip": 32, "azimuth": 182, "type": "B", "x": 10.0934547, "y": 47.49516904 }, "geometry": { "type": "Point", "coordinates": [ 582358.949803322902881, 5260772.243374236859381 ] } },
{ "type": "Feature", "properties": { "Location #": 19, "dip": 16, "azimuth": 57, "type": "F", "x": 10.0934547, "y": 47.49516904 }, "geometry": { "type": "Point", "coordinates": [ 582358.949803322902881, 5260772.243374236859381 ] } },
{ "type": "Feature", "properties": { "Location #": 19, "dip": 24, "azimuth": 0, "type": "F", "x": 10.0934547, "y": 47.49516904 }, "geometry": { "type": "Point", "coordinates": [ 582358.949803322902881, 5260772.243374236859381 ] } },
{ "type": "Feature", "properties": { "Location #": 19, "dip": 85, "azimuth": 252, "type": "F", "x": 10.0934547, "y": 47.49516904 }, "geometry": { "type": "Point", "coordinates": [ 582358.949803322902881, 5260772.243374236859381 ] } },
{ "type": "Feature", "properties": { "Location #": 19, "dip": 87, "azimuth": 266, "type": "F", "x": 10.0934547, "y": 47.49516904 }, "geometry": { "type": "Point", "coordinates": [ 582358.949803322902881, 5260772.243374236859381 ] } },
{ "type": "Feature", "properties": { "Location #": 19, "dip": 76, "azimuth": 244, "type": "F", "x": 10.0934547, "y": 47.49516904 }, "geometry": { "type": "Point", "coordinates": [ 582358.949803322902881, 5260772.243374236859381 ] } },
{ "type": "Feature", "properties": { "Location #": 21, "dip": 30, "azimuth": 164, "type": "B", "x": 10.07812831, "y": 47.49446471 }, "geometry": { "type": "Point", "coordinates": [ 581205.66465514653828, 5260677.838709572330117 ] } },
{ "type": "Feature", "properties": { "Location #": 21, "dip": 38, "azimuth": 169, "type": "B", "x": 10.07812831, "y": 47.49446471 }, "geometry": { "type": "Point", "coordinates": [ 581205.66465514653828, 5260677.838709572330117 ] } },
{ "type": "Feature", "properties": { "Location #": 21, "dip": 44, "azimuth": 157, "type": "B", "x": 10.07812831, "y": 47.49446471 }, "geometry": { "type": "Point", "coordinates": [ 581205.66465514653828, 5260677.838709572330117 ] } },
{ "type": "Feature", "properties": { "Location #": 21, "dip": 38, "azimuth": 148, "type": "B", "x": 10.07812831, "y": 47.49446471 }, "geometry": { "type": "Point", "coordinates": [ 581205.66465514653828, 5260677.838709572330117 ] } },
{ "type": "Feature", "properties": { "Location #": 21, "dip": 48, "azimuth": 147, "type": "B", "x": 10.07812831, "y": 47.49446471 }, "geometry": { "type": "Point", "coordinates": [ 581205.66465514653828, 5260677.838709572330117 ] } },
{ "type": "Feature", "properties": { "Location #": 21, "dip": 50, "azimuth": 150, "type": "B", "x": 10.07812831, "y": 47.49446471 }, "geometry": { "type": "Point", "coordinates": [ 581205.66465514653828, 5260677.838709572330117 ] } },
{ "type": "Feature", "properties": { "Location #": 21, "dip": 45, "azimuth": 170, "type": "B", "x": 10.07812831, "y": 47.49446471 }, "geometry": { "type": "Point", "coordinates": [ 581205.66465514653828, 5260677.838709572330117 ] } },
{ "type": "Feature", "properties": { "Location #": 21, "dip": 40, "azimuth": 140, "type": "B", "x": 10.07812831, "y": 47.49446471 }, "geometry": { "type": "Point", "coordinates": [ 581205.66465514653828, 5260677.838709572330117 ] } },
{ "type": "Feature", "properties": { "Location #": 22, "dip": 39, "azimuth": 151, "type": "B/S", "x": 10.07765487, "y": 47.49316621 }, "geometry": { "type": "Point", "coordinates": [ 581172.006239622831345, 5260533.0361831439659 ] } },
{ "type": "Feature", "properties": { "Location #": 22, "dip": 38, "azimuth": 169, "type": "B/S", "x": 10.07765487, "y": 47.49316621 }, "geometry": { "type": "Point", "coordinates": [ 581172.006239622831345, 5260533.0361831439659 ] } },
{ "type": "Feature", "properties": { "Location #": 22, "dip": 31, "azimuth": 164, "type": "B/S", "x": 10.07765487, "y": 47.49316621 }, "geometry": { "type": "Point", "coordinates": [ 581172.006239622831345, 5260533.0361831439659 ] } },
{ "type": "Feature", "properties": { "Location #": 22, "dip": 38, "azimuth": 164, "type": "B", "x": 10.07765487, "y": 47.49316621 }, "geometry": { "type": "Point", "coordinates": [ 581172.006239622831345, 5260533.0361831439659 ] } },
{ "type": "Feature", "properties": { "Location #": 22, "dip": 45, "azimuth": 166, "type": "B", "x": 10.07765487, "y": 47.49316621 }, "geometry": { "type": "Point", "coordinates": [ 581172.006239622831345, 5260533.0361831439659 ] } },
{ "type": "Feature", "properties": { "Location #": 22, "dip": 53, "azimuth": 161, "type": "B", "x": 10.07765487, "y": 47.49316621 }, "geometry": { "type": "Point", "coordinates": [ 581172.006239622831345, 5260533.0361831439659 ] } },
{ "type": "Feature", "properties": { "Location #": 22, "dip": 49, "azimuth": 176, "type": "B/S", "x": 10.07765487, "y": 47.49316621 }, "geometry": { "type": "Point", "coordinates": [ 581172.006239622831345, 5260533.0361831439659 ] } },
{ "type": "Feature", "properties": { "Location #": 22, "dip": 55, "azimuth": 154, "type": "B/S", "x": 10.07765487, "y": 47.49316621 }, "geometry": { "type": "Point", "coordinates": [ 581172.006239622831345, 5260533.0361831439659 ] } },
{ "type": "Feature", "properties": { "Location #": 24, "dip": 45, "azimuth": 4, "type": "B", "x": 10.08604816, "y": 47.48927455 }, "geometry": { "type": "Point", "coordinates": [ 581810.250168181955814, 5260109.340568870306015 ] } },
{ "type": "Feature", "properties": { "Location #": 24, "dip": 42, "azimuth": 347, "type": "B", "x": 10.08604816, "y": 47.48927455 }, "geometry": { "type": "Point", "coordinates": [ 581810.250168181955814, 5260109.340568870306015 ] } },
{ "type": "Feature", "properties": { "Location #": 24, "dip": 38, "azimuth": 346, "type": "B", "x": 10.08604816, "y": 47.48927455 }, "geometry": { "type": "Point", "coordinates": [ 581810.250168181955814, 5260109.340568870306015 ] } },
{ "type": "Feature", "properties": { "Location #": 24, "dip": 49, "azimuth": 15, "type": "B", "x": 10.08604816, "y": 47.48927455 }, "geometry": { "type": "Point", "coordinates": [ 581810.250168181955814, 5260109.340568870306015 ] } },
{ "type": "Feature", "properties": { "Location #": 24, "dip": 59, "azimuth": 331, "type": "B", "x": 10.08604816, "y": 47.48927455 }, "geometry": { "type": "Point", "coordinates": [ 581810.250168181955814, 5260109.340568870306015 ] } },
{ "type": "Feature", "properties": { "Location #": 25, "dip": 49, "azimuth": 326, "type": "B", "x": 10.08583663, "y": 47.48822788 }, "geometry": { "type": "Point", "coordinates": [ 581795.941309271845967, 5259992.797096050344408 ] } },
{ "type": "Feature", "properties": { "Location #": 25, "dip": 51, "azimuth": 327, "type": "B", "x": 10.08583663, "y": 47.48822788 }, "geometry": { "type": "Point", "coordinates": [ 581795.941309271845967, 5259992.797096050344408 ] } },
{ "type": "Feature", "properties": { "Location #": 25, "dip": 51, "azimuth": 336, "type": "B", "x": 10.08583663, "y": 47.48822788 }, "geometry": { "type": "Point", "coordinates": [ 581795.941309271845967, 5259992.797096050344408 ] } },
{ "type": "Feature", "properties": { "Location #": 25, "dip": 51, "azimuth": 343, "type": "B", "x": 10.08583663, "y": 47.48822788 }, "geometry": { "type": "Point", "coordinates": [ 581795.941309271845967, 5259992.797096050344408 ] } },
{ "type": "Feature", "properties": { "Location #": 25, "dip": 47, "azimuth": 80, "type": "F", "x": 10.08583663, "y": 47.48822788 }, "geometry": { "type": "Point", "coordinates": [ 581795.941309271845967, 5259992.797096050344408 ] } },
{ "type": "Feature", "properties": { "Location #": 25, "dip": 59, "azimuth": 91, "type": "F", "x": 10.08583663, "y": 47.48822788 }, "geometry": { "type": "Point", "coordinates": [ 581795.941309271845967, 5259992.797096050344408 ] } },
{ "type": "Feature", "properties": { "Location #": 25, "dip": 61, "azimuth": 160, "type": "F", "x": 10.08583663, "y": 47.48822788 }, "geometry": { "type": "Point", "coordinates": [ 581795.941309271845967, 5259992.797096050344408 ] } },
{ "type": "Feature", "properties": { "Location #": 26, "dip": 62, "azimuth": 170, "type": "B", "x": 10.0951855, "y": 47.48928238 }, "geometry": { "type": "Point", "coordinates": [ 582498.531802572659217, 5260119.86975765414536 ] } },
{ "type": "Feature", "properties": { "Location #": 26, "dip": 75, "azimuth": 156, "type": "B", "x": 10.0951855, "y": 47.48928238 }, "geometry": { "type": "Point", "coordinates": [ 582498.531802572659217, 5260119.86975765414536 ] } },
{ "type": "Feature", "properties": { "Location #": 26, "dip": 66, "azimuth": 156, "type": "B", "x": 10.0951855, "y": 47.48928238 }, "geometry": { "type": "Point", "coordinates": [ 582498.531802572659217, 5260119.86975765414536 ] } },
{ "type": "Feature", "properties": { "Location #": 26, "dip": 53, "azimuth": 173, "type": "B", "x": 10.0951855, "y": 47.48928238 }, "geometry": { "type": "Point", "coordinates": [ 582498.531802572659217, 5260119.86975765414536 ] } },
{ "type": "Feature", "properties": { "Location #": 26, "dip": 49, "azimuth": 151, "type": "B", "x": 10.0951855, "y": 47.48928238 }, "geometry": { "type": "Point", "coordinates": [ 582498.531802572659217, 5260119.86975765414536 ] } },
{ "type": "Feature", "properties": { "Location #": 27, "dip": 61, "azimuth": 151, "type": "B", "x": 10.09638085, "y": 47.48931306 }, "geometry": { "type": "Point", "coordinates": [ 582588.526522463187575, 5260124.548935774713755 ] } },
{ "type": "Feature", "properties": { "Location #": 27, "dip": 66, "azimuth": 166, "type": "B", "x": 10.09638085, "y": 47.48931306 }, "geometry": { "type": "Point", "coordinates": [ 582588.526522463187575, 5260124.548935774713755 ] } },
{ "type": "Feature", "properties": { "Location #": 27, "dip": 65, "azimuth": 160, "type": "B", "x": 10.09638085, "y": 47.48931306 }, "geometry": { "type": "Point", "coordinates": [ 582588.526522463187575, 5260124.548935774713755 ] } },
{ "type": "Feature", "properties": { "Location #": 27, "dip": 65, "azimuth": 153, "type": "B", "x": 10.09638085, "y": 47.48931306 }, "geometry": { "type": "Point", "coordinates": [ 582588.526522463187575, 5260124.548935774713755 ] } },
{ "type": "Feature", "properties": { "Location #": 27, "dip": 48, "azimuth": 153, "type": "B", "x": 10.09638085, "y": 47.48931306 }, "geometry": { "type": "Point", "coordinates": [ 582588.526522463187575, 5260124.548935774713755 ] } },
{ "type": "Feature", "properties": { "Location #": 27, "dip": 48, "azimuth": 166, "type": "B", "x": 10.09638085, "y": 47.48931306 }, "geometry": { "type": "Point", "coordinates": [ 582588.526522463187575, 5260124.548935774713755 ] } },
{ "type": "Feature", "properties": { "Location #": 27, "dip": 55, "azimuth": 171, "type": "B", "x": 10.09638085, "y": 47.48931306 }, "geometry": { "type": "Point", "coordinates": [ 582588.526522463187575, 5260124.548935774713755 ] } }
]
}
